#aV2008  4 30  0  0   .00000000      96 DD+AD WGS84 FIT  NGA
## 1477 259200.00000000   900.00000000 54586  .0000000000000
+   31     2  3  4  5  6  7  8  9 10 11 12 13 14 15 16 17 18
+         19 20 21 22 23 24 25 26 27 28 29 30 31 32  0  0  0
+          0  0  0  0  0  0  0  0  0  0  0  0  0  0  0  0  0
+          0  0  0  0  0  0  0  0  0  0  0  0  0  0  0  0  0
+          0  0  0  0  0  0  0  0  0  0  0  0  0  0  0  0  0
++         0  0  0  0  0  0  0  0  0  0  0  0  0  0  0  0  0
++         0  0  0  0  0  0  0  0  0  0  0  0  0  0  0  0  0
++         0  0  0  0  0  0  0  0  0  0  0  0  0  0  0  0  0
++         0  0  0  0  0  0  0  0  0  0  0  0  0  0  0  0  0
++         0  0  0  0  0  0  0  0  0  0  0  0  0  0  0  0  0
%c cc cc ccc ccc cccc cccc cccc cccc ccccc ccccc ccccc ccccc
%c cc cc ccc ccc cccc cccc cccc cccc ccccc ccccc ccccc ccccc
%f  0.0000000  0.000000000  0.00000000000  0.000000000000000
%f  0.0000000  0.000000000  0.00000000000  0.000000000000000
%i    0    0    0    0      0      0      0      0         0
%i    0    0    0    0      0      0      0      0         0
/*      NGA, ST. LOUIS,MO.                                  
/*   EPHEMERIS COMPUTED FROM  3 DAYS OF DATA                
/* CCCCCCCCCCCCCCCCCCCCCCCCCCCCCCCCCCCCCCCCCCCCCCCCCCCCCCCCC
/* CCCCCCCCCCCCCCCCCCCCCCCCCCCCCCCCCCCCCCCCCCCCCCCCCCCCCCCCC
*  2008  4 30 12 15   .00000000                                                 
P  2   7032.437277 -14173.807751  21129.985137    196.927907                    
V  2  26619.781615   6203.582611  -5007.858348       .069995                    
P  3  -8145.399840  23313.454120  -9549.365136    221.588882                    
V  3 -10056.159829   7452.824644  27854.176032       .053490                    
P  4  19081.104772  -8106.156755  16705.365219    -57.052356                    
V  4  20355.967199   6585.332521 -19579.383267      -.081391                    
P  5 -15766.393853 -18989.700835   9730.225054    761.554673                    
V  5  -2223.975935 -12881.724968 -27833.383016       .087377                    
P  6 -18360.721660  19091.682737   2511.546692    114.983370                    
V  6   -853.233793  -4599.341546  30895.135629       .104722                    
P  7  25296.527751   7623.971867   3030.963575    -55.468606                    
V  7  -4354.322809   1822.537712  31431.806222       .104136                    
P  8  24846.060638   -232.059651 -10103.553366   -151.001909                    
V  8  11696.256161   4723.636911  28440.305263      -.015580                    
P  9 -15627.433060 -14365.839638 -16692.157864    122.347542                    
V  9  19869.230455   2142.868118 -21093.980513       .017541                    
P 10    446.273954 -24188.314928  10434.342025     -1.111226                    
V 10   6389.663323  12256.418499  28097.101071      -.004776                    
P 11  19239.281604  11961.614788 -14260.752014     26.004568                    
V 11 -18029.513178   2923.684763 -21776.204839      -.002764                    
P 12 -12201.317965 -22678.618076   6786.433334   -359.150537                    
V 12   -183.229195  -8834.836087 -30180.148906      -.000623                    
P 13  17607.819923    457.653928  19753.522521    253.091859                    
V 13 -17229.723678  18495.001552  14866.133075       .018126                    
P 14 -20920.892402  14040.293547  -8152.296473   -271.883165                    
V 14   5913.827457  -8856.495206 -30160.211562       .040881                    
P 15   1164.073257 -19902.916975 -17524.039835   -104.326252                    
V 15  16093.172476 -15542.134692  18705.687214      -.052859                    
P 16  -4091.761795  21689.144212  14702.502660    126.822435                    
V 16  -7383.138242 -17211.192091  23647.350222      -.013138                    
P 17  20876.169303 -14056.977434  -8194.002529     39.417778                    
V 17  -5104.889183   9591.475540 -29480.268783      -.002750                    
P 18 -16525.246161  -8263.599120 -19030.900252   -182.526559                    
V 18  -5321.114150 -23916.063239  14514.361968       .035183                    
P 19  -1617.285486  19218.210681 -18095.553838     28.656317                    
V 19 -17949.492294  14848.931613  17467.551749       .009675                    
P 20  13472.856554  21363.261312   8169.544355    115.390698                    
V 20    563.081220  10944.111213 -29080.332568      -.008066                    
P 21 -26367.693976  -4738.579548  -2197.890971     65.632055                    
V 21  -2162.359666  -3652.186907  30659.410814      -.010573                    
P 22 -13729.269149   7796.655595 -21201.022034    210.851616                    
V 22  -7738.164849 -26226.081491  -4649.379827       .000147                    
P 23   8994.707820  12175.844821  21736.581122    350.859822                    
V 23 -18996.443922  20238.626197  -3698.248573       .023138                    
P 24 -20550.902706 -13141.177015  10326.979198     90.323221                    
V 24  13273.957499    621.573513  27930.063219       .028680                    
P 25  22206.867975  10069.157360  10671.023694   -117.552030                    
V 25 -13262.128430    858.643845  27914.287883      -.277425                    
P 26   5063.081974 -20328.380686 -16458.935393    243.064450                    
V 26  15193.904617 -13324.388063  22308.822042       .083318                    
P 27  26102.200561   5200.236635   1728.029322    185.050184                    
V 27  -1723.183201   2170.726155  31752.478670       .027180                    
P 28  14124.109219  -5040.146069 -21530.556104    -18.441366                    
V 28   8172.481865  27056.346879  -1283.363652      -.005011                    
P 29 -16099.826121  -4184.803885  20820.325853    -43.519212                    
V 29  17341.198695 -19621.952346   9547.276180       .004253                    
P 30 -16661.462937 -13672.370028  15251.793699     74.296091                    
V 30  -4700.271353 -19537.146100 -22062.410680       .017499                    
P 31 -17160.824108   9247.979222  18295.962989    -18.281166                    
V 31 -21985.772462  -6014.334855 -17675.975065      -.013727                    
P 32   -397.379286  25019.346847  -8757.369363    277.779712                    
V 32  -4851.752411 -10839.528690 -29149.726718       .059322                    
EOF
